{
  "type": "FeatureCollection",
  "features": [
    {
      "type": "Feature",
      "properties": {
        "norad_id": 64751,
        "name": "PROGRESS-MS 31",
        "group": "stations",
        "lat": -45.03486226855515,
        "lon": 74.10233820011779,
        "alt_km": 420.6380550594922,
        "timestamp": "2025-12-15T22:44:27.684137+00:00",
        "meta_object_name": "PROGRESS-MS 31",
        "meta_object_id": "2025-146A",
        "meta_epoch": "2025-12-15T05:59:35.690496",
        "meta_mean_motion": 15.49601155,
        "meta_eccentricity": 0.00031934,
        "meta_inclination": 51.6306,
        "meta_ra_of_asc_node": 130.0501,
        "meta_arg_of_pericenter": 251.9008,
        "meta_mean_anomaly": 108.1633,
        "meta_ephemeris_type": 0,
        "meta_classification_type": "U",
        "meta_norad_cat_id": 64751,
        "meta_element_set_no": 999,
        "meta_rev_at_epoch": 675,
        "meta_bstar": 0.00013467464,
        "meta_mean_motion_dot": 7.132e-05,
        "meta_mean_motion_ddot": 0,
        "tle_line1": "1 64751U 25146A   25349.24971864  .00007132  00000+0  13467-3 0  9991",
        "tle_line2": "2 64751  51.6306 130.0501 0003193 251.9008 108.1633 15.49601155  6754"
      },
      "geometry": {
        "type": "Point",
        "coordinates": [
          74.10233820011779,
          -45.03486226855515
        ]
      }
    },
    {
      "type": "Feature",
      "properties": {
        "norad_id": 64786,
        "name": "TIANZHOU-9",
        "group": "stations",
        "lat": 5.915327464624942,
        "lon": 170.49308197395234,
        "alt_km": 390.58224499660446,
        "timestamp": "2025-12-15T22:44:27.684148+00:00",
        "meta_object_name": "TIANZHOU-9",
        "meta_object_id": "2025-149A",
        "meta_epoch": "2025-12-15T08:10:40.084608",
        "meta_mean_motion": 15.592964,
        "meta_eccentricity": 0.0007961,
        "meta_inclination": 41.4685,
        "meta_ra_of_asc_node": 0.9167,
        "meta_arg_of_pericenter": 52.8673,
        "meta_mean_anomaly": 307.2892,
        "meta_ephemeris_type": 0,
        "meta_classification_type": "U",
        "meta_norad_cat_id": 64786,
        "meta_element_set_no": 999,
        "meta_rev_at_epoch": 25530,
        "meta_bstar": 0.00021537809,
        "meta_mean_motion_dot": 0.00017163,
        "meta_mean_motion_ddot": 0,
        "tle_line1": "1 64786U 25149A   25349.34074172  .00017163  00000+0  21538-3 0  9992",
        "tle_line2": "2 64786  41.4685   0.9167 0007961  52.8673 307.2892 15.59296400255305"
      },
      "geometry": {
        "type": "Point",
        "coordinates": [
          170.49308197395234,
          5.915327464624942
        ]
      }
    },
    {
      "type": "Feature",
      "properties": {
        "norad_id": 65077,
        "name": "CREW DRAGON 11",
        "group": "stations",
        "lat": -45.03486156016774,
        "lon": 74.10234004454126,
        "alt_km": 420.63805507102825,
        "timestamp": "2025-12-15T22:44:27.684160+00:00",
        "meta_object_name": "CREW DRAGON 11",
        "meta_object_id": "2025-166A",
        "meta_epoch": "2025-12-15T05:59:35.690496",
        "meta_mean_motion": 15.49601155,
        "meta_eccentricity": 0.00031934,
        "meta_inclination": 51.6306,
        "meta_ra_of_asc_node": 130.0501,
        "meta_arg_of_pericenter": 251.9008,
        "meta_mean_anomaly": 108.1633,
        "meta_ephemeris_type": 0,
        "meta_classification_type": "U",
        "meta_norad_cat_id": 65077,
        "meta_element_set_no": 999,
        "meta_rev_at_epoch": 214,
        "meta_bstar": 0.00013467464,
        "meta_mean_motion_dot": 7.132e-05,
        "meta_mean_motion_ddot": 0,
        "tle_line1": "1 65077U 25166A   25349.24971864  .00007132  00000+0  13467-3 0  9995",
        "tle_line2": "2 65077  51.6306 130.0501 0003193 251.9008 108.1633 15.49601155  2145"
      },
      "geometry": {
        "type": "Point",
        "coordinates": [
          74.10234004454126,
          -45.03486156016774
        ]
      }
    },
    {
      "type": "Feature",
      "properties": {
        "norad_id": 65304,
        "name": "DRAGON CRS-33",
        "group": "stations",
        "lat": -45.03486115977436,
        "lon": 74.10234108704273,
        "alt_km": 420.63805507755296,
        "timestamp": "2025-12-15T22:44:27.684173+00:00",
        "meta_object_name": "DRAGON CRS-33",
        "meta_object_id": "2025-186A",
        "meta_epoch": "2025-12-15T05:59:35.690496",
        "meta_mean_motion": 15.49601155,
        "meta_eccentricity": 0.00031934,
        "meta_inclination": 51.6306,
        "meta_ra_of_asc_node": 130.0501,
        "meta_arg_of_pericenter": 251.9008,
        "meta_mean_anomaly": 108.1633,
        "meta_ephemeris_type": 0,
        "meta_classification_type": "U",
        "meta_norad_cat_id": 65304,
        "meta_element_set_no": 999,
        "meta_rev_at_epoch": 11,
        "meta_bstar": 0.00013467464,
        "meta_mean_motion_dot": 7.132e-05,
        "meta_mean_motion_ddot": 0,
        "tle_line1": "1 65304U 25186A   25349.24971864  .00007132  00000+0  13467-3 0  9990",
        "tle_line2": "2 65304  51.6306 130.0501 0003193 251.9008 108.1633 15.49601155   113"
      },
      "geometry": {
        "type": "Point",
        "coordinates": [
          74.10234108704273,
          -45.03486115977436
        ]
      }
    },
    {
      "type": "Feature",
      "properties": {
        "norad_id": 65586,
        "name": "PROGRESS-MS 32",
        "group": "stations",
        "lat": -45.03486085178023,
        "lon": 74.10234188896484,
        "alt_km": 420.6380550825661,
        "timestamp": "2025-12-15T22:44:27.684183+00:00",
        "meta_object_name": "PROGRESS-MS 32",
        "meta_object_id": "2025-204A",
        "meta_epoch": "2025-12-15T05:59:35.690496",
        "meta_mean_motion": 15.49601155,
        "meta_eccentricity": 0.00031934,
        "meta_inclination": 51.6306,
        "meta_ra_of_asc_node": 130.0501,
        "meta_arg_of_pericenter": 251.9008,
        "meta_mean_anomaly": 108.1633,
        "meta_ephemeris_type": 0,
        "meta_classification_type": "U",
        "meta_norad_cat_id": 65586,
        "meta_element_set_no": 999,
        "meta_rev_at_epoch": 27,
        "meta_bstar": 0.00013467464,
        "meta_mean_motion_dot": 7.132e-05,
        "meta_mean_motion_ddot": 0,
        "tle_line1": "1 65586U 25204A   25349.24971864  .00007132  00000+0  13467-3 0  9993",
        "tle_line2": "2 65586  51.6306 130.0501 0003193 251.9008 108.1633 15.49601155   272"
      },
      "geometry": {
        "type": "Point",
        "coordinates": [
          74.10234188896484,
          -45.03486085178023
        ]
      }
    },
    {
      "type": "Feature",
      "properties": {
        "norad_id": 65616,
        "name": "CYGNUS NG-23",
        "group": "stations",
        "lat": -45.034860543785754,
        "lon": 74.10234269088792,
        "alt_km": 420.63805508758105,
        "timestamp": "2025-12-15T22:44:27.684193+00:00",
        "meta_object_name": "CYGNUS NG-23",
        "meta_object_id": "2025-208A",
        "meta_epoch": "2025-12-15T05:59:35.690496",
        "meta_mean_motion": 15.49601155,
        "meta_eccentricity": 0.00031934,
        "meta_inclination": 51.6306,
        "meta_ra_of_asc_node": 130.0501,
        "meta_arg_of_pericenter": 251.9008,
        "meta_mean_anomaly": 108.1633,
        "meta_ephemeris_type": 0,
        "meta_classification_type": "U",
        "meta_norad_cat_id": 65616,
        "meta_element_set_no": 999,
        "meta_rev_at_epoch": 22,
        "meta_bstar": 0.00013467464,
        "meta_mean_motion_dot": 7.132e-05,
        "meta_mean_motion_ddot": 0,
        "tle_line1": "1 65616U 25208A   25349.24971864  .00007132  00000+0  13467-3 0  9991",
        "tle_line2": "2 65616  51.6306 130.0501 0003193 251.9008 108.1633 15.49601155   221"
      },
      "geometry": {
        "type": "Point",
        "coordinates": [
          74.10234269088792,
          -45.034860543785754
        ]
      }
    },
    {
      "type": "Feature",
      "properties": {
        "norad_id": 65729,
        "name": "DRAGONFLY",
        "group": "stations",
        "lat": 0.8934296265501392,
        "lon": -61.38831289360759,
        "alt_km": 353.02019499533253,
        "timestamp": "2025-12-15T22:44:27.684203+00:00",
        "meta_object_name": "DRAGONFLY",
        "meta_object_id": "1998-067XH",
        "meta_epoch": "2025-12-14T18:32:10.159584",
        "meta_mean_motion": 15.72674024,
        "meta_eccentricity": 0.00069619,
        "meta_inclination": 51.6244,
        "meta_ra_of_asc_node": 125.3489,
        "meta_arg_of_pericenter": 292.1448,
        "meta_mean_anomaly": 67.8811,
        "meta_ephemeris_type": 0,
        "meta_classification_type": "U",
        "meta_norad_cat_id": 65729,
        "meta_element_set_no": 999,
        "meta_rev_at_epoch": 1348,
        "meta_bstar": 0.0010954429,
        "meta_mean_motion_dot": 0.00152909,
        "meta_mean_motion_ddot": 0,
        "tle_line1": "1 65729U 98067XH  25348.77233981  .00152909  00000+0  10954-2 0  9997",
        "tle_line2": "2 65729  51.6244 125.3489 0006961 292.1448  67.8811 15.72674024 13482"
      },
      "geometry": {
        "type": "Point",
        "coordinates": [
          -61.38831289360759,
          0.8934296265501392
        ]
      }
    }
  ]
}